{"type": "FeatureCollection", "features": [ {"type": "Feature", "properties": {"norad_id": 40534, "name": "GPS BIIF-9  (PRN 26)", "group": "gps-ops", "lat": -22.88651844217615, "lon": -166.08527633579763, "alt_km": 20073.223290025715, "timestamp": "2025-12-02T13:52:17.521143+00:00", "meta": {"OBJECT_NAME": "GPS BIIF-9  (PRN 26)", "OBJECT_ID": "2015-013A", "EPOCH": "2025-12-01T02:55:38.238240", "MEAN_MOTION": 2.00563184, "ECCENTRICITY": 0.01065399, "INCLINATION": 53.1998, "RA_OF_ASC_NODE": 212.3715, "ARG_OF_PERICENTER": 38.192, "MEAN_ANOMALY": 322.6465, "EPHEMERIS_TYPE": 0, "CLASSIFICATION_TYPE": "U", "NORAD_CAT_ID": 40534, "ELEMENT_SET_NO": 999, "REV_AT_EPOCH": 7785, "BSTAR": 0, "MEAN_MOTION_DOT": 6.6e-07, "MEAN_MOTION_DDOT": 0}, "tle": {"line1": "1 40534U 15013A   25335.12197035  .00000066  00000+0  00000+0 0  9992", "line2": "2 40534  53.1998 212.3715 0106539  38.1920 322.6465  2.00563184 77855"}}, "geometry": {"type": "Point", "coordinates": [-166.08527633579763, -22.88651844217615]}}, {"type": "Feature", "properties": {"norad_id": 40730, "name": "GPS BIIF-10 (PRN 08)", "group": "gps-ops", "lat": -27.873391556328063, "lon": 117.63095455632646, "alt_km": 20474.58404926124, "timestamp": "2025-12-02T13:52:17.521156+00:00", "meta": {"OBJECT_NAME": "GPS BIIF-10 (PRN 08)", "OBJECT_ID": "2015-033A", "EPOCH": "2025-12-01T06:48:01.041696", "MEAN_MOTION": 2.0056609, "ECCENTRICITY": 0.01102372, "INCLINATION": 54.1408, "RA_OF_ASC_NODE": 275.2444, "ARG_OF_PERICENTER": 26.5253, "MEAN_ANOMALY": 334.0329, "EPHEMERIS_TYPE": 0, "CLASSIFICATION_TYPE": "U", "NORAD_CAT_ID": 40730, "ELEMENT_SET_NO": 999, "REV_AT_EPOCH": 7602, "BSTAR": 0, "MEAN_MOTION_DOT": -3.9e-07, "MEAN_MOTION_DDOT": 0}, "tle": {"line1": "1 40730U 15033A   25335.28334539 -.00000039  00000+0  00000+0 0  9992", "line2": "2 40730  54.1408 275.2444 0110237  26.5253 334.0329  2.00566090 76020"}}, "geometry": {"type": "Point", "coordinates": [117.63095455632646, -27.873391556328063]}}, {"type": "Feature", "properties": {"norad_id": 41019, "name": "GPS BIIF-11 (PRN 10)", "group": "gps-ops", "lat": 8.410297812026915, "lon": -147.13314828558816, "alt_km": 20030.35497839751, "timestamp": "2025-12-02T13:52:17.521181+00:00", "meta": {"OBJECT_NAME": "GPS BIIF-11 (PRN 10)", "OBJECT_ID": "2015-062A", "EPOCH": "2025-12-01T08:13:28.844544", "MEAN_MOTION": 2.00567003, "ECCENTRICITY": 0.01104814, "INCLINATION": 56.824, "RA_OF_ASC_NODE": 38.4433, "ARG_OF_PERICENTER": 229.6355, "MEAN_ANOMALY": 129.443, "EPHEMERIS_TYPE": 0, "CLASSIFICATION_TYPE": "U", "NORAD_CAT_ID": 41019, "ELEMENT_SET_NO": 999, "REV_AT_EPOCH": 7386, "BSTAR": 0, "MEAN_MOTION_DOT": -6.4e-07, "MEAN_MOTION_DDOT": 0}, "tle": {"line1": "1 41019U 15062A   25335.34269496 -.00000064  00000+0  00000+0 0  9999", "line2": "2 41019  56.8240  38.4433 0110481 229.6355 129.4430  2.00567003 73864"}}, "geometry": {"type": "Point", "coordinates": [-147.13314828558816, 8.410297812026915]}}, {"type": "Feature", "properties": {"norad_id": 41328, "name": "GPS BIIF-12 (PRN 32)", "group": "gps-ops", "lat": 50.28595320150596, "lon": -138.89623171859492, "alt_km": 20339.16837355027, "timestamp": "2025-12-02T13:52:17.521202+00:00", "meta": {"OBJECT_NAME": "GPS BIIF-12 (PRN 32)", "OBJECT_ID": "2016-007A", "EPOCH": "2025-11-30T22:13:59.162880", "MEAN_MOTION": 2.00561199, "ECCENTRICITY": 0.00916001, "INCLINATION": 55.3993, "RA_OF_ASC_NODE": 97.326, "ARG_OF_PERICENTER": 243.286, "MEAN_ANOMALY": 115.7578, "EPHEMERIS_TYPE": 0, "CLASSIFICATION_TYPE": "U", "NORAD_CAT_ID": 41328, "ELEMENT_SET_NO": 999, "REV_AT_EPOCH": 7186, "BSTAR": 0, "MEAN_MOTION_DOT": 2.3e-07, "MEAN_MOTION_DDOT": 0}, "tle": {"line1": "1 41328U 16007A   25334.92637920  .00000023  00000+0  00000+0 0  9990", "line2": "2 41328  55.3993  97.3260 0091600 243.2860 115.7578  2.00561199 71861"}}, "geometry": {"type": "Point", "coordinates": [-138.89623171859492, 50.28595320150596]}}, {"type": "Feature", "properties": {"norad_id": 43873, "name": "GPS BIII-1  (PRN 04)", "group": "gps-ops", "lat": 5.415459544293843, "lon": 103.65919488115512, "alt_km": 20280.61497953374, "timestamp": "2025-12-02T13:52:17.521224+00:00", "meta": {"OBJECT_NAME": "GPS BIII-1  (PRN 04)", "OBJECT_ID": "2018-109A", "EPOCH": "2025-12-01T14:03:36.800640", "MEAN_MOTION": 2.00553137, "ECCENTRICITY": 0.00371823, "INCLINATION": 55.5605, "RA_OF_ASC_NODE": 99.9877, "ARG_OF_PERICENTER": 194.4831, "MEAN_ANOMALY": 175.6663, "EPHEMERIS_TYPE": 0, "CLASSIFICATION_TYPE": "U", "NORAD_CAT_ID": 43873, "ELEMENT_SET_NO": 999, "REV_AT_EPOCH": 5111, "BSTAR": 0, "MEAN_MOTION_DOT": 2.2e-07, "MEAN_MOTION_DDOT": 0}, "tle": {"line1": "1 43873U 18109A   25335.58584260  .00000022  00000+0  00000+0 0  9992", "line2": "2 43873  55.5605  99.9877 0037182 194.4831 175.6663  2.00553137 51111"}}, "geometry": {"type": "Point", "coordinates": [103.65919488115512, 5.415459544293843]}}, {"type": "Feature", "properties": {"norad_id": 44506, "name": "GPS BIII-2  (PRN 18)", "group": "gps-ops", "lat": -55.190599822450714, "lon": -122.2496603731632, "alt_km": 20122.683835442123, "timestamp": "2025-12-02T13:52:17.521237+00:00", "meta": {"OBJECT_NAME": "GPS BIII-2  (PRN 18)", "OBJECT_ID": "2019-056A", "EPOCH": "2025-12-01T10:53:28.832352", "MEAN_MOTION": 2.00565577, "ECCENTRICITY": 0.00578098, "INCLINATION": 55.7254, "RA_OF_ASC_NODE": 339.0016, "ARG_OF_PERICENTER": 198.3769, "MEAN_ANOMALY": 332.9368, "EPHEMERIS_TYPE": 0, "CLASSIFICATION_TYPE": "U", "NORAD_CAT_ID": 44506, "ELEMENT_SET_NO": 999, "REV_AT_EPOCH": 4610, "BSTAR": 0, "MEAN_MOTION_DOT": -5.6e-07, "MEAN_MOTION_DDOT": 0}, "tle": {"line1": "1 44506U 19056A   25335.45380593 -.00000056  00000+0  00000+0 0  9995", "line2": "2 44506  55.7254 339.0016 0057809 198.3769 332.9368  2.00565577 46105"}}, "geometry": {"type": "Point", "coordinates": [-122.2496603731632, -55.190599822450714]}}, {"type": "Feature", "properties": {"norad_id": 45854, "name": "GPS BIII-3  (PRN 23)", "group": "gps-ops", "lat": -22.51810245593374, "lon": -127.50786216527078, "alt_km": 20025.595313465816, "timestamp": "2025-12-02T13:52:17.521249+00:00", "meta": {"OBJECT_NAME": "GPS BIII-3  (PRN 23)", "OBJECT_ID": "2020-041A", "EPOCH": "2025-12-01T12:48:33.414048", "MEAN_MOTION": 2.00561786, "ECCENTRICITY": 0.00602336, "INCLINATION": 56.5391, "RA_OF_ASC_NODE": 36.623, "ARG_OF_PERICENTER": 202.9184, "MEAN_ANOMALY": 330.3559, "EPHEMERIS_TYPE": 0, "CLASSIFICATION_TYPE": "U", "NORAD_CAT_ID": 45854, "ELEMENT_SET_NO": 999, "REV_AT_EPOCH": 4007, "BSTAR": 0, "MEAN_MOTION_DOT": -6.5e-07, "MEAN_MOTION_DDOT": 0}, "tle": {"line1": "1 45854U 20041A   25335.53372007 -.00000065  00000+0  00000+0 0  9998", "line2": "2 45854  56.5391  36.6230 0060233 202.9184 330.3559  2.00561786 40071"}}, "geometry": {"type": "Point", "coordinates": [-127.50786216527078, -22.51810245593374]}}, {"type": "Feature", "properties": {"norad_id": 46826, "name": "GPS BIII-4  (PRN 14)", "group": "gps-ops", "lat": 1.932524099363704, "lon": 37.354288074249624, "alt_km": 20029.12489770495, "timestamp": "2025-12-02T13:52:17.521265+00:00", "meta": {"OBJECT_NAME": "GPS BIII-4  (PRN 14)", "OBJECT_ID": "2020-078A", "EPOCH": "2025-11-12T03:01:29.190720", "MEAN_MOTION": 2.00567032, "ECCENTRICITY": 0.0063911, "INCLINATION": 54.0223, "RA_OF_ASC_NODE": 219.5836, "ARG_OF_PERICENTER": 203.4985, "MEAN_ANOMALY": 326.7754, "EPHEMERIS_TYPE": 0, "CLASSIFICATION_TYPE": "U", "NORAD_CAT_ID": 46826, "ELEMENT_SET_NO": 999, "REV_AT_EPOCH": 3715, "BSTAR": 0, "MEAN_MOTION_DOT": -3.4e-07, "MEAN_MOTION_DDOT": 0}, "tle": {"line1": "1 46826U 20078A   25316.12603230 -.00000034  00000+0  00000+0 0  9993", "line2": "2 46826  54.0223 219.5836 0063911 203.4985 326.7754  2.00567032 37154"}}, "geometry": {"type": "Point", "coordinates": [37.354288074249624, 1.932524099363704]}}, {"type": "Feature", "properties": {"norad_id": 48859, "name": "GPS BIII-5  (PRN 11)", "group": "gps-ops", "lat": 3.324663858443342, "lon": -17.324452204374744, "alt_km": 20225.814757392935, "timestamp": "2025-12-02T13:52:17.521277+00:00", "meta": {"OBJECT_NAME": "GPS BIII-5  (PRN 11)", "OBJECT_ID": "2021-054A", "EPOCH": "2025-11-30T17:12:22.003776", "MEAN_MOTION": 2.00553931, "ECCENTRICITY": 0.00246504, "INCLINATION": 55.2605, "RA_OF_ASC_NODE": 340.4377, "ARG_OF_PERICENTER": 232.9586, "MEAN_ANOMALY": 227.195, "EPHEMERIS_TYPE": 0, "CLASSIFICATION_TYPE": "U", "NORAD_CAT_ID": 48859, "ELEMENT_SET_NO": 999, "REV_AT_EPOCH": 3277, "BSTAR": 0, "MEAN_MOTION_DOT": -5.5e-07, "MEAN_MOTION_DDOT": 0}, "tle": {"line1": "1 48859U 21054A   25334.71692134 -.00000055  00000+0  00000+0 0  9995", "line2": "2 48859  55.2605 340.4377 0024650 232.9586 227.1950  2.00553931 32772"}}, "geometry": {"type": "Point", "coordinates": [-17.324452204374744, 3.324663858443342]}}, {"type": "Feature", "properties": {"norad_id": 55268, "name": "GPS BIII-6  (PRN 28)", "group": "gps-ops", "lat": 36.240548372367584, "lon": -172.97451079523393, "alt_km": 20172.031112545115, "timestamp": "2025-12-02T13:52:17.521288+00:00", "meta": {"OBJECT_NAME": "GPS BIII-6  (PRN 28)", "OBJECT_ID": "2023-009A", "EPOCH": "2025-11-30T00:32:38.315616", "MEAN_MOTION": 2.00556632, "ECCENTRICITY": 0.00034826, "INCLINATION": 55.1054, "RA_OF_ASC_NODE": 156.3454, "ARG_OF_PERICENTER": 359.6796, "MEAN_ANOMALY": 1.4566, "EPHEMERIS_TYPE": 0, "CLASSIFICATION_TYPE": "U", "NORAD_CAT_ID": 55268, "ELEMENT_SET_NO": 999, "REV_AT_EPOCH": 2125, "BSTAR": 0, "MEAN_MOTION_DOT": 1.29e-06, "MEAN_MOTION_DDOT": 0}, "tle": {"line1": "1 55268U 23009A   25334.02266569  .00000129  00000+0  00000+0 0  9993", "line2": "2 55268  55.1054 156.3454 0003482 359.6796   1.4566  2.00556632 21259"}}, "geometry": {"type": "Point", "coordinates": [-172.97451079523393, 36.240548372367584]}}]}